STARLINK-35549          
1 66139U 25237AB  25310.75001156 -.00039653  00000+0 -26826-3 0  9994
2 66139  53.1600 258.3546 0001870  51.1617 166.7926 15.74140181  3699
STARLINK-35625          
1 66140U 25237AC  25310.75001156  .00038147  00000+0  26466-3 0  9991
2 66140  53.1598 258.3589 0001076  97.3983 118.6480 15.74094160  3696
STARLINK-35603          
1 66141U 25237AD  25310.75001156 -.00004836  00000+0 -28843-4 0  9994
2 66141  53.1601 258.3506 0001115  70.9397 148.9387 15.74114470  3690
TJS-20                  
1 66142U 25238A   25310.75999065  .00000026  00000+0  00000+0 0  9996
2 66142   5.9695 300.4801 0001625 143.6922 298.1240  1.00270511   106
CZ-5 R/B                
1 66143U 25238B   25310.40030491  .00047549  14106-5  17508-2 0  9991
2 66143  16.3507 268.7811 7595139 172.6399 214.4968  1.93400840   286
SPAINSAT NG II          
1 66144U 25239A   25309.75307808 -.00000261  00000+0  11442-1 0  9991
2 66144  23.6444 245.0523 8079820 181.5611 171.6834  1.10720685   161
STATLINK-35318          
1 66146U 25240A   25310.75613191 -.00200584  00000+0 -12635-2 0  9999
2 66146  53.1529 277.6160 0003250 163.4531 196.6596 15.76486325  3161
STARLINK-33948          
1 66147U 25240B   25310.75577100 -.00176532  00000+0 -11099-2 0  9997
2 66147  53.1532 277.6135 0004331 170.2370 189.8736 15.76448027  3163
STARLINK-35081          
1 66148U 25240C   25310.75541698  .00027939  00000+0  17710-3 0  9992
2 66148  53.1529 277.6110 0003709 162.7775 197.3372 15.76338788  3113
STARLINK-35601          
1 66149U 25240D   25310.50075507  .00671139  00000+0  33029-2 0  9994
2 66149  53.1525 278.8655 0010359 296.2795  63.7162 15.79775583  3070
STARLINK-35605          
1 66150U 25240E   25310.43623066  .00918117  00000+0  40725-2 0  9998
2 66150  53.1526 279.1743 0009097 197.2569 162.8146 15.81433454  3064
STARLINK-35540          
1 66151U 25240F   25310.50072560 -.00528656  00000+0 -33995-2 0  9992
2 66151  53.1526 278.8654 0000555 315.4595  44.6381 15.76938755  3072
