CCSDS_OMM_VERS = 2.0
CREATION_DATE  = 
ORIGINATOR     = 

OBJECT_NAME    = STARLINK-35549
OBJECT_ID      = 2025-237AB
CENTER_NAME    = EARTH
REF_FRAME      = TEME
TIME_SYSTEM    = UTC
MEAN_ELEMENT_THEORY = SGP/SGP4

EPOCH          = 2025-11-06T18:00:00.998784
MEAN_MOTION    = 15.74140181
ECCENTRICITY   = .000187
INCLINATION    = 53.1600
RA_OF_ASC_NODE = 258.3546
ARG_OF_PERICENTER = 51.1617
MEAN_ANOMALY   = 166.7926

EPHEMERIS_TYPE = 0
CLASSIFICATION_TYPE = U
NORAD_CAT_ID   = 66139
ELEMENT_SET_NO = 999
REV_AT_EPOCH   = 369
BSTAR          = -.26826E-3
MEAN_MOTION_DOT = -.39653E-3
MEAN_MOTION_DDOT = 0

CCSDS_OMM_VERS = 2.0
CREATION_DATE  = 
ORIGINATOR     = 

OBJECT_NAME    = STARLINK-35625
OBJECT_ID      = 2025-237AC
CENTER_NAME    = EARTH
REF_FRAME      = TEME
TIME_SYSTEM    = UTC
MEAN_ELEMENT_THEORY = SGP/SGP4

EPOCH          = 2025-11-06T18:00:00.998784
MEAN_MOTION    = 15.74094160
ECCENTRICITY   = .0001076
INCLINATION    = 53.1598
RA_OF_ASC_NODE = 258.3589
ARG_OF_PERICENTER = 97.3983
MEAN_ANOMALY   = 118.6480

EPHEMERIS_TYPE = 0
CLASSIFICATION_TYPE = U
NORAD_CAT_ID   = 66140
ELEMENT_SET_NO = 999
REV_AT_EPOCH   = 369
BSTAR          = .26466E-3
MEAN_MOTION_DOT = .38147E-3
MEAN_MOTION_DDOT = 0

CCSDS_OMM_VERS = 2.0
CREATION_DATE  = 
ORIGINATOR     = 

OBJECT_NAME    = STARLINK-35603
OBJECT_ID      = 2025-237AD
CENTER_NAME    = EARTH
REF_FRAME      = TEME
TIME_SYSTEM    = UTC
MEAN_ELEMENT_THEORY = SGP/SGP4

EPOCH          = 2025-11-06T18:00:00.998784
MEAN_MOTION    = 15.74114470
ECCENTRICITY   = .0001115
INCLINATION    = 53.1601
RA_OF_ASC_NODE = 258.3506
ARG_OF_PERICENTER = 70.9397
MEAN_ANOMALY   = 148.9387

EPHEMERIS_TYPE = 0
CLASSIFICATION_TYPE = U
NORAD_CAT_ID   = 66141
ELEMENT_SET_NO = 999
REV_AT_EPOCH   = 369
BSTAR          = -.28843E-4
MEAN_MOTION_DOT = -.4836E-4
MEAN_MOTION_DDOT = 0

CCSDS_OMM_VERS = 2.0
CREATION_DATE  = 
ORIGINATOR     = 

OBJECT_NAME    = TJS-20
OBJECT_ID      = 2025-238A
CENTER_NAME    = EARTH
REF_FRAME      = TEME
TIME_SYSTEM    = UTC
MEAN_ELEMENT_THEORY = SGP/SGP4

EPOCH          = 2025-11-06T18:14:23.192160
MEAN_MOTION    = 1.00270511
ECCENTRICITY   = .0001625
INCLINATION    = 5.9695
RA_OF_ASC_NODE = 300.4801
ARG_OF_PERICENTER = 143.6922
MEAN_ANOMALY   = 298.1240

EPHEMERIS_TYPE = 0
CLASSIFICATION_TYPE = U
NORAD_CAT_ID   = 66142
ELEMENT_SET_NO = 999
REV_AT_EPOCH   = 10
BSTAR          = 0
MEAN_MOTION_DOT = .26E-6
MEAN_MOTION_DDOT = 0

CCSDS_OMM_VERS = 2.0
CREATION_DATE  = 
ORIGINATOR     = 

OBJECT_NAME    = CZ-5 R/B
OBJECT_ID      = 2025-238B
CENTER_NAME    = EARTH
REF_FRAME      = TEME
TIME_SYSTEM    = UTC
MEAN_ELEMENT_THEORY = SGP/SGP4

EPOCH          = 2025-11-06T09:36:26.344224
MEAN_MOTION    = 1.93400840
ECCENTRICITY   = .7595139
INCLINATION    = 16.3507
RA_OF_ASC_NODE = 268.7811
ARG_OF_PERICENTER = 172.6399
MEAN_ANOMALY   = 214.4968

EPHEMERIS_TYPE = 0
CLASSIFICATION_TYPE = U
NORAD_CAT_ID   = 66143
ELEMENT_SET_NO = 999
REV_AT_EPOCH   = 28
BSTAR          = .17508E-2
MEAN_MOTION_DOT = .47549E-3
MEAN_MOTION_DDOT = .14106E-5

CCSDS_OMM_VERS = 2.0
CREATION_DATE  = 
ORIGINATOR     = 

OBJECT_NAME    = SPAINSAT NG II
OBJECT_ID      = 2025-239A
CENTER_NAME    = EARTH
REF_FRAME      = TEME
TIME_SYSTEM    = UTC
MEAN_ELEMENT_THEORY = SGP/SGP4

EPOCH          = 2025-11-05T18:04:25.946112
MEAN_MOTION    = 1.10720685
ECCENTRICITY   = .807982
INCLINATION    = 23.6444
RA_OF_ASC_NODE = 245.0523
ARG_OF_PERICENTER = 181.5611
MEAN_ANOMALY   = 171.6834

EPHEMERIS_TYPE = 0
CLASSIFICATION_TYPE = U
NORAD_CAT_ID   = 66144
ELEMENT_SET_NO = 999
REV_AT_EPOCH   = 16
BSTAR          = .11442E-1
MEAN_MOTION_DOT = -.261E-5
MEAN_MOTION_DDOT = 0

CCSDS_OMM_VERS = 2.0
CREATION_DATE  = 
ORIGINATOR     = 

OBJECT_NAME    = STATLINK-35318
OBJECT_ID      = 2025-240A
CENTER_NAME    = EARTH
REF_FRAME      = TEME
TIME_SYSTEM    = UTC
MEAN_ELEMENT_THEORY = SGP/SGP4

EPOCH          = 2025-11-06T18:08:49.797024
MEAN_MOTION    = 15.76486325
ECCENTRICITY   = .000325
INCLINATION    = 53.1529
RA_OF_ASC_NODE = 277.6160
ARG_OF_PERICENTER = 163.4531
MEAN_ANOMALY   = 196.6596

EPHEMERIS_TYPE = 0
CLASSIFICATION_TYPE = U
NORAD_CAT_ID   = 66146
ELEMENT_SET_NO = 999
REV_AT_EPOCH   = 316
BSTAR          = -.12635E-2
MEAN_MOTION_DOT = -.200584E-2
MEAN_MOTION_DDOT = 0

CCSDS_OMM_VERS = 2.0
CREATION_DATE  = 
ORIGINATOR     = 

OBJECT_NAME    = STARLINK-33948
OBJECT_ID      = 2025-240B
CENTER_NAME    = EARTH
REF_FRAME      = TEME
TIME_SYSTEM    = UTC
MEAN_ELEMENT_THEORY = SGP/SGP4

EPOCH          = 2025-11-06T18:08:18.614400
MEAN_MOTION    = 15.76448027
ECCENTRICITY   = .0004331
INCLINATION    = 53.1532
RA_OF_ASC_NODE = 277.6135
ARG_OF_PERICENTER = 170.2370
MEAN_ANOMALY   = 189.8736

EPHEMERIS_TYPE = 0
CLASSIFICATION_TYPE = U
NORAD_CAT_ID   = 66147
ELEMENT_SET_NO = 999
REV_AT_EPOCH   = 316
BSTAR          = -.11099E-2
MEAN_MOTION_DOT = -.176532E-2
MEAN_MOTION_DDOT = 0

CCSDS_OMM_VERS = 2.0
CREATION_DATE  = 
ORIGINATOR     = 

OBJECT_NAME    = STARLINK-35081
OBJECT_ID      = 2025-240C
CENTER_NAME    = EARTH
REF_FRAME      = TEME
TIME_SYSTEM    = UTC
MEAN_ELEMENT_THEORY = SGP/SGP4

EPOCH          = 2025-11-06T18:07:48.027072
MEAN_MOTION    = 15.76338788
ECCENTRICITY   = .0003709
INCLINATION    = 53.1529
RA_OF_ASC_NODE = 277.6110
ARG_OF_PERICENTER = 162.7775
MEAN_ANOMALY   = 197.3372

EPHEMERIS_TYPE = 0
CLASSIFICATION_TYPE = U
NORAD_CAT_ID   = 66148
ELEMENT_SET_NO = 999
REV_AT_EPOCH   = 311
BSTAR          = .1771E-3
MEAN_MOTION_DOT = .27939E-3
MEAN_MOTION_DDOT = 0

CCSDS_OMM_VERS = 2.0
CREATION_DATE  = 
ORIGINATOR     = 

OBJECT_NAME    = STARLINK-35601
OBJECT_ID      = 2025-240D
CENTER_NAME    = EARTH
REF_FRAME      = TEME
TIME_SYSTEM    = UTC
MEAN_ELEMENT_THEORY = SGP/SGP4

EPOCH          = 2025-11-06T12:01:05.238048
MEAN_MOTION    = 15.79775583
ECCENTRICITY   = .0010359
INCLINATION    = 53.1525
RA_OF_ASC_NODE = 278.8655
ARG_OF_PERICENTER = 296.2795
MEAN_ANOMALY   = 63.7162

EPHEMERIS_TYPE = 0
CLASSIFICATION_TYPE = U
NORAD_CAT_ID   = 66149
ELEMENT_SET_NO = 999
REV_AT_EPOCH   = 307
BSTAR          = .33029E-2
MEAN_MOTION_DOT = .671139E-2
MEAN_MOTION_DDOT = 0

CCSDS_OMM_VERS = 2.0
CREATION_DATE  = 
ORIGINATOR     = 

OBJECT_NAME    = STARLINK-35605
OBJECT_ID      = 2025-240E
CENTER_NAME    = EARTH
REF_FRAME      = TEME
TIME_SYSTEM    = UTC
MEAN_ELEMENT_THEORY = SGP/SGP4

EPOCH          = 2025-11-06T10:28:10.329024
MEAN_MOTION    = 15.81433454
ECCENTRICITY   = .0009097
INCLINATION    = 53.1526
RA_OF_ASC_NODE = 279.1743
ARG_OF_PERICENTER = 197.2569
MEAN_ANOMALY   = 162.8146

EPHEMERIS_TYPE = 0
CLASSIFICATION_TYPE = U
NORAD_CAT_ID   = 66150
ELEMENT_SET_NO = 999
REV_AT_EPOCH   = 306
BSTAR          = .40725E-2
MEAN_MOTION_DOT = .918117E-2
MEAN_MOTION_DDOT = 0

CCSDS_OMM_VERS = 2.0
CREATION_DATE  = 
ORIGINATOR     = 

OBJECT_NAME    = STARLINK-35540
OBJECT_ID      = 2025-240F
CENTER_NAME    = EARTH
REF_FRAME      = TEME
TIME_SYSTEM    = UTC
MEAN_ELEMENT_THEORY = SGP/SGP4

EPOCH          = 2025-11-06T12:01:02.691840
MEAN_MOTION    = 15.76938755
ECCENTRICITY   = .0000555
INCLINATION    = 53.1526
RA_OF_ASC_NODE = 278.8654
ARG_OF_PERICENTER = 315.4595
MEAN_ANOMALY   = 44.6381

EPHEMERIS_TYPE = 0
CLASSIFICATION_TYPE = U
NORAD_CAT_ID   = 66151
ELEMENT_SET_NO = 999
REV_AT_EPOCH   = 307
BSTAR          = -.33995E-2
MEAN_MOTION_DOT = -.528656E-2
MEAN_MOTION_DDOT = 0

